[{"OBJECT_NAME":"STARLINK-6326","OBJECT_ID":"2023-078W","EPOCH":"2026-03-09T22:36:03.602304","MEAN_MOTION":14.98329674,"ECCENTRICITY":0.0001755,"INCLINATION":70.0003,"RA_OF_ASC_NODE":323.7288,"ARG_OF_PERICENTER":274.6103,"MEAN_ANOMALY":85.4855,"EPHEMERIS_TYPE":0,"CLASSIFICATION_TYPE":"U","NORAD_CAT_ID":56787,"ELEMENT_SET_NO":999,"REV_AT_EPOCH":15321,"BSTAR":-3.0224546e-5,"MEAN_MOTION_DOT":-4.53e-6,"MEAN_MOTION_DDOT":0},{"OBJECT_NAME":"KUIPER-00106","OBJECT_ID":"2025-171N","EPOCH":"2026-03-09T10:38:15.017568","MEAN_MOTION":14.97188469,"ECCENTRICITY":0.00079317,"INCLINATION":51.8933,"RA_OF_ASC_NODE":156.0933,"ARG_OF_PERICENTER":97.4823,"MEAN_ANOMALY":262.7049,"EPHEMERIS_TYPE":0,"CLASSIFICATION_TYPE":"U","NORAD_CAT_ID":65144,"ELEMENT_SET_NO":999,"REV_AT_EPOCH":3290,"BSTAR":0.00038673669,"MEAN_MOTION_DOT":4.265e-5,"MEAN_MOTION_DDOT":0}]
